[
    {
        "Altitude(m)": 605470.7824501599,
        "Argument of Periapsis(deg)": 0.0,
        "Eccentricity": 0.0,
        "Inclination(deg)": 60.0,
        "Latitude(deg)": 27.988181639192447,
        "Longitude(deg)": 157.26298969875546,
        "Mean Anomaly(deg)": 147.2727,
        "RAAN(deg)": 95.0,
        "Satellite Name": "Test1 427",
        "Satellite Number": 427,
        "Semi-Major Axis(m)": 6980739.136638005,
        "Time(s)": 0
    },
    {
        "Altitude(m)": 605395.8202746524,
        "Argument of Periapsis(deg)": 0.00010418945913296404,
        "Eccentricity": 0.0,
        "Inclination(deg)": 60.0,
        "Latitude(deg)": 27.47387183446417,
        "Longitude(deg)": 157.6161764789309,
        "Mean Anomaly(deg)": 147.8928061454618,
        "RAAN(deg)": 94.99957995086027,
        "Satellite Name": "Test1 427",
        "Satellite Number": 427,
        "Semi-Major Axis(m)": 6980739.136638005,
        "Time(s)": 10
    }
]